[{"OBJECT_NAME":"ONEWEB-0158","OBJECT_ID":"2021-025N","EPOCH":"2025-08-16T17:20:37.410144","MEAN_MOTION":13.13468599,"ECCENTRICITY":0.0001924,"INCLINATION":87.8994,"RA_OF_ASC_NODE":20.686,"ARG_OF_PERICENTER":93.6289,"MEAN_ANOMALY":266.506,"EPHEMERIS_TYPE":0,"CLASSIFICATION_TYPE":"U","NORAD_CAT_ID":48054,"ELEMENT_SET_NO":999,"REV_AT_EPOCH":21366,"BSTAR":0.00097857,"MEAN_MOTION_DOT":3.7e-6,"MEAN_MOTION_DDOT":0},{"OBJECT_NAME":"ONEWEB-0157","OBJECT_ID":"2021-025P","EPOCH":"2025-08-17T03:05:38.934240","MEAN_MOTION":13.13470016,"ECCENTRICITY":0.0001404,"INCLINATION":87.8989,"RA_OF_ASC_NODE":20.6142,"ARG_OF_PERICENTER":103.5168,"MEAN_ANOMALY":256.6118,"EPHEMERIS_TYPE":0,"CLASSIFICATION_TYPE":"U","NORAD_CAT_ID":48055,"ELEMENT_SET_NO":999,"REV_AT_EPOCH":21365,"BSTAR":-0.0003213,"MEAN_MOTION_DOT":-1.05e-6,"MEAN_MOTION_DDOT":0},{"OBJECT_NAME":"ONEWEB-0162","OBJECT_ID":"2021-025Q","EPOCH":"2025-08-17T09:50:07.052640","MEAN_MOTION":13.13470786,"ECCENTRICITY":0.0001733,"INCLINATION":87.8993,"RA_OF_ASC_NODE":20.5574,"ARG_OF_PERICENTER":96.7514,"MEAN_ANOMALY":263.3812,"EPHEMERIS_TYPE":0,"CLASSIFICATION_TYPE":"U","NORAD_CAT_ID":48056,"ELEMENT_SET_NO":999,"REV_AT_EPOCH":21366,"BSTAR":0.0010502,"MEAN_MOTION_DOT":3.96e-6,"MEAN_MOTION_DDOT":0},{"OBJECT_NAME":"ONEWEB-0155","OBJECT_ID":"2021-025R","EPOCH":"2025-08-17T04:30:58.352832","MEAN_MOTION":13.1346879,"ECCENTRICITY":0.0001594,"INCLINATION":87.8992,"RA_OF_ASC_NODE":20.6093,"ARG_OF_PERICENTER":92.3945,"MEAN_ANOMALY":267.7367,"EPHEMERIS_TYPE":0,"CLASSIFICATION_TYPE":"U","NORAD_CAT_ID":48057,"ELEMENT_SET_NO":999,"REV_AT_EPOCH":21377,"BSTAR":0.00079088,"MEAN_MOTION_DOT":3.02e-6,"MEAN_MOTION_DDOT":0},{"OBJECT_NAME":"ONEWEB-0149","OBJECT_ID":"2021-025S","EPOCH":"2025-08-17T03:12:58.075200","MEAN_MOTION":13.13468269,"ECCENTRICITY":0.0001881,"INCLINATION":87.899,"RA_OF_ASC_NODE":20.6143,"ARG_OF_PERICENTER":100.7769,"MEAN_ANOMALY":259.3572,"EPHEMERIS_TYPE":0,"CLASSIFICATION_TYPE":"U","NORAD_CAT_ID":48058,"ELEMENT_SET_NO":999,"REV_AT_EPOCH":21357,"BSTAR":-0.00088476,"MEAN_MOTION_DOT":-3.1e-6,"MEAN_MOTION_DDOT":0},{"OBJECT_NAME":"ONEWEB-0148","OBJECT_ID":"2021-025T","EPOCH":"2025-08-17T09:38:07.458144","MEAN_MOTION":13.13469462,"ECCENTRICITY":0.0001931,"INCLINATION":87.8988,"RA_OF_ASC_NODE":20.586,"ARG_OF_PERICENTER":114.7714,"MEAN_ANOMALY":245.3616,"EPHEMERIS_TYPE":0,"CLASSIFICATION_TYPE":"U","NORAD_CAT_ID":48059,"ELEMENT_SET_NO":999,"REV_AT_EPOCH":21373,"BSTAR":0.00058958,"MEAN_MOTION_DOT":2.28e-6,"MEAN_MOTION_DDOT":0},{"OBJECT_NAME":"ONEWEB-0160","OBJECT_ID":"2021-025U","EPOCH":"2025-08-17T02:43:43.619520","MEAN_MOTION":13.1346991,"ECCENTRICITY":0.0002501,"INCLINATION":87.8993,"RA_OF_ASC_NODE":20.6403,"ARG_OF_PERICENTER":84.323,"MEAN_ANOMALY":275.8184,"EPHEMERIS_TYPE":0,"CLASSIFICATION_TYPE":"U","NORAD_CAT_ID":48060,"ELEMENT_SET_NO":999,"REV_AT_EPOCH":21364,"BSTAR":0.00054573,"MEAN_MOTION_DOT":2.12e-6,"MEAN_MOTION_DDOT":0},{"OBJECT_NAME":"ONEWEB-0163","OBJECT_ID":"2021-025V","EPOCH":"2025-08-17T09:40:33.958848","MEAN_MOTION":13.13470932,"ECCENTRICITY":0.0001474,"INCLINATION":87.8991,"RA_OF_ASC_NODE":20.5632,"ARG_OF_PERICENTER":100.0524,"MEAN_ANOMALY":260.0771,"EPHEMERIS_TYPE":0,"CLASSIFICATION_TYPE":"U","NORAD_CAT_ID":48061,"ELEMENT_SET_NO":999,"REV_AT_EPOCH":21380,"BSTAR":0.00071066,"MEAN_MOTION_DOT":2.72e-6,"MEAN_MOTION_DDOT":0},{"OBJECT_NAME":"ONEWEB-0159","OBJECT_ID":"2021-025W","EPOCH":"2025-08-17T09:28:21.595296","MEAN_MOTION":13.13471346,"ECCENTRICITY":0.0001652,"INCLINATION":87.8991,"RA_OF_ASC_NODE":20.5466,"ARG_OF_PERICENTER":101.8887,"MEAN_ANOMALY":258.2427,"EPHEMERIS_TYPE":0,"CLASSIFICATION_TYPE":"U","NORAD_CAT_ID":48062,"ELEMENT_SET_NO":999,"REV_AT_EPOCH":21372,"BSTAR":0.00033814,"MEAN_MOTION_DOT":1.36e-6,"MEAN_MOTION_DDOT":0},{"OBJECT_NAME":"ONEWEB-0164","OBJECT_ID":"2021-025X","EPOCH":"2025-08-17T09:01:32.564640","MEAN_MOTION":13.13471668,"ECCENTRICITY":0.0001784,"INCLINATION":87.8992,"RA_OF_ASC_NODE":20.5602,"ARG_OF_PERICENTER":93.9181,"MEAN_ANOMALY":266.2153,"EPHEMERIS_TYPE":0,"CLASSIFICATION_TYPE":"U","NORAD_CAT_ID":48063,"ELEMENT_SET_NO":999,"REV_AT_EPOCH":21370,"BSTAR":-0.00046678,"MEAN_MOTION_DOT":-1.58e-6,"MEAN_MOTION_DDOT":0},{"OBJECT_NAME":"ONEWEB-0167","OBJECT_ID":"2021-025Y","EPOCH":"2025-08-17T09:41:47.136192","MEAN_MOTION":13.13471299,"ECCENTRICITY":0.0001115,"INCLINATION":87.8999,"RA_OF_ASC_NODE":20.5879,"ARG_OF_PERICENTER":76.2077,"MEAN_ANOMALY":283.9176,"EPHEMERIS_TYPE":0,"CLASSIFICATION_TYPE":"U","NORAD_CAT_ID":48064,"ELEMENT_SET_NO":999,"REV_AT_EPOCH":21369,"BSTAR":0.00083646,"MEAN_MOTION_DOT":3.18e-6,"MEAN_MOTION_DDOT":0},{"OBJECT_NAME":"ONEWEB-0166","OBJECT_ID":"2021-025Z","EPOCH":"2025-08-17T10:14:40.933824","MEAN_MOTION":13.13470713,"ECCENTRICITY":0.0001792,"INCLINATION":87.8988,"RA_OF_ASC_NODE":20.5342,"ARG_OF_PERICENTER":101.4747,"MEAN_ANOMALY":258.6584,"EPHEMERIS_TYPE":0,"CLASSIFICATION_TYPE":"U","NORAD_CAT_ID":48065,"ELEMENT_SET_NO":999,"REV_AT_EPOCH":21377,"BSTAR":0.0004009,"MEAN_MOTION_DOT":1.59e-6,"MEAN_MOTION_DDOT":0},{"OBJECT_NAME":"ONEWEB-0151","OBJECT_ID":"2021-025AA","EPOCH":"2025-08-17T08:27:25.935264","MEAN_MOTION":13.1346862,"ECCENTRICITY":0.0001678,"INCLINATION":87.8992,"RA_OF_ASC_NODE":20.573,"ARG_OF_PERICENTER":91.325,"MEAN_ANOMALY":268.8071,"EPHEMERIS_TYPE":0,"CLASSIFICATION_TYPE":"U","NORAD_CAT_ID":48066,"ELEMENT_SET_NO":999,"REV_AT_EPOCH":21370,"BSTAR":0.00018788,"MEAN_MOTION_DOT":8.1e-7,"MEAN_MOTION_DDOT":0},{"OBJECT_NAME":"ONEWEB-0170","OBJECT_ID":"2021-025AB","EPOCH":"2025-08-17T03:10:31.277280","MEAN_MOTION":13.13470135,"ECCENTRICITY":0.0001931,"INCLINATION":87.8994,"RA_OF_ASC_NODE":20.6229,"ARG_OF_PERICENTER":80.7644,"MEAN_ANOMALY":279.3703,"EPHEMERIS_TYPE":0,"CLASSIFICATION_TYPE":"U","NORAD_CAT_ID":48067,"ELEMENT_SET_NO":999,"REV_AT_EPOCH":21363,"BSTAR":-0.00069024,"MEAN_MOTION_DOT":-2.39e-6,"MEAN_MOTION_DDOT":0},{"OBJECT_NAME":"ONEWEB-0168","OBJECT_ID":"2021-025AC","EPOCH":"2025-08-17T10:07:22.109088","MEAN_MOTION":13.13468778,"ECCENTRICITY":0.0001631,"INCLINATION":87.8995,"RA_OF_ASC_NODE":20.5467,"ARG_OF_PERICENTER":99.122,"MEAN_ANOMALY":261.0094,"EPHEMERIS_TYPE":0,"CLASSIFICATION_TYPE":"U","NORAD_CAT_ID":48068,"ELEMENT_SET_NO":999,"REV_AT_EPOCH":21368,"BSTAR":0.00063266,"MEAN_MOTION_DOT":2.44e-6,"MEAN_MOTION_DDOT":0},{"OBJECT_NAME":"ONEWEB-0173","OBJECT_ID":"2021-025AD","EPOCH":"2025-08-17T09:55:11.236800","MEAN_MOTION":13.13470515,"ECCENTRICITY":0.0001321,"INCLINATION":87.8994,"RA_OF_ASC_NODE":20.5566,"ARG_OF_PERICENTER":95.6852,"MEAN_ANOMALY":264.4428,"EPHEMERIS_TYPE":0,"CLASSIFICATION_TYPE":"U","NORAD_CAT_ID":48069,"ELEMENT_SET_NO":999,"REV_AT_EPOCH":21392,"BSTAR":0.0010798,"MEAN_MOTION_DOT":4.07e-6,"MEAN_MOTION_DDOT":0},{"OBJECT_NAME":"ONEWEB-0171","OBJECT_ID":"2021-025AE","EPOCH":"2025-08-17T08:59:07.376352","MEAN_MOTION":13.13470451,"ECCENTRICITY":0.0001698,"INCLINATION":87.899,"RA_OF_ASC_NODE":20.6021,"ARG_OF_PERICENTER":92.0409,"MEAN_ANOMALY":268.0914,"EPHEMERIS_TYPE":0,"CLASSIFICATION_TYPE":"U","NORAD_CAT_ID":48070,"ELEMENT_SET_NO":999,"REV_AT_EPOCH":21373,"BSTAR":-0.00066245,"MEAN_MOTION_DOT":-2.29e-6,"MEAN_MOTION_DDOT":0},{"OBJECT_NAME":"ONEWEB-0172","OBJECT_ID":"2021-025AF","EPOCH":"2025-08-17T08:29:51.257472","MEAN_MOTION":13.13470839,"ECCENTRICITY":0.0001617,"INCLINATION":87.8994,"RA_OF_ASC_NODE":20.5724,"ARG_OF_PERICENTER":92.7871,"MEAN_ANOMALY":267.3443,"EPHEMERIS_TYPE":0,"CLASSIFICATION_TYPE":"U","NORAD_CAT_ID":48071,"ELEMENT_SET_NO":999,"REV_AT_EPOCH":21462,"BSTAR":0.00012584,"MEAN_MOTION_DOT":5.9e-7,"MEAN_MOTION_DDOT":0},{"OBJECT_NAME":"ONEWEB-0174","OBJECT_ID":"2021-025AG","EPOCH":"2025-08-17T09:52:46.814016","MEAN_MOTION":13.13470465,"ECCENTRICITY":0.0001754,"INCLINATION":87.8992,"RA_OF_ASC_NODE":20.5746,"ARG_OF_PERICENTER":99.5966,"MEAN_ANOMALY":260.5361,"EPHEMERIS_TYPE":0,"CLASSIFICATION_TYPE":"U","NORAD_CAT_ID":48072,"ELEMENT_SET_NO":999,"REV_AT_EPOCH":21395,"BSTAR":0.00091545,"MEAN_MOTION_DOT":3.47e-6,"MEAN_MOTION_DDOT":0},{"OBJECT_NAME":"ONEWEB-0175","OBJECT_ID":"2021-025AH","EPOCH":"2025-08-17T08:46:55.652160","MEAN_MOTION":13.13469102,"ECCENTRICITY":0.0001687,"INCLINATION":87.899,"RA_OF_ASC_NODE":20.5479,"ARG_OF_PERICENTER":83.9627,"MEAN_ANOMALY":276.1694,"EPHEMERIS_TYPE":0,"CLASSIFICATION_TYPE":"U","NORAD_CAT_ID":48073,"ELEMENT_SET_NO":999,"REV_AT_EPOCH":21360,"BSTAR":-0.0005766,"MEAN_MOTION_DOT":-1.98e-6,"MEAN_MOTION_DDOT":0},{"OBJECT_NAME":"ONEWEB-0177","OBJECT_ID":"2021-025AJ","EPOCH":"2025-08-17T09:03:58.940928","MEAN_MOTION":13.13470567,"ECCENTRICITY":0.0001627,"INCLINATION":87.8995,"RA_OF_ASC_NODE":20.5617,"ARG_OF_PERICENTER":100.943,"MEAN_ANOMALY":259.1883,"EPHEMERIS_TYPE":0,"CLASSIFICATION_TYPE":"U","NORAD_CAT_ID":48074,"ELEMENT_SET_NO":999,"REV_AT_EPOCH":21379,"BSTAR":-0.00065337,"MEAN_MOTION_DOT":-2.26e-6,"MEAN_MOTION_DDOT":0},{"OBJECT_NAME":"ONEWEB-0178","OBJECT_ID":"2021-025AK","EPOCH":"2025-08-17T09:30:58.817376","MEAN_MOTION":13.13471982,"ECCENTRICITY":0.0001502,"INCLINATION":87.8995,"RA_OF_ASC_NODE":20.6034,"ARG_OF_PERICENTER":90.018,"MEAN_ANOMALY":270.1122,"EPHEMERIS_TYPE":0,"CLASSIFICATION_TYPE":"U","NORAD_CAT_ID":48075,"ELEMENT_SET_NO":999,"REV_AT_EPOCH":21384,"BSTAR":0.00041643,"MEAN_MOTION_DOT":1.65e-6,"MEAN_MOTION_DDOT":0},{"OBJECT_NAME":"ONEWEB-0108","OBJECT_ID":"2021-025AL","EPOCH":"2025-08-17T08:32:18.235104","MEAN_MOTION":13.1346984,"ECCENTRICITY":0.0001992,"INCLINATION":87.899,"RA_OF_ASC_NODE":20.559,"ARG_OF_PERICENTER":97.4721,"MEAN_ANOMALY":262.6635,"EPHEMERIS_TYPE":0,"CLASSIFICATION_TYPE":"U","NORAD_CAT_ID":48076,"ELEMENT_SET_NO":999,"REV_AT_EPOCH":21376,"BSTAR":0.00012076,"MEAN_MOTION_DOT":5.7e-7,"MEAN_MOTION_DDOT":0},{"OBJECT_NAME":"ONEWEB-0169","OBJECT_ID":"2021-025AM","EPOCH":"2025-08-17T09:18:37.180512","MEAN_MOTION":13.13471155,"ECCENTRICITY":0.0001984,"INCLINATION":87.8995,"RA_OF_ASC_NODE":20.575,"ARG_OF_PERICENTER":97.6676,"MEAN_ANOMALY":262.4678,"EPHEMERIS_TYPE":0,"CLASSIFICATION_TYPE":"U","NORAD_CAT_ID":48077,"ELEMENT_SET_NO":999,"REV_AT_EPOCH":21242,"BSTAR":-0.0001976,"MEAN_MOTION_DOT":-5.9e-7,"MEAN_MOTION_DDOT":0}]
